CCSDS_OMM_VERS = 2.0
CREATION_DATE  = 
ORIGINATOR     = 

OBJECT_NAME    = STARLINK-36688
OBJECT_ID      = 2026-022J
CENTER_NAME    = EARTH
REF_FRAME      = TEME
TIME_SYSTEM    = UTC
MEAN_ELEMENT_THEORY = SGP/SGP4

EPOCH          = 2026-02-07T06:00:02.999808
MEAN_MOTION    = 16.03778575
ECCENTRICITY   = .00010224
INCLINATION    = 97.2825
RA_OF_ASC_NODE = 70.5367
ARG_OF_PERICENTER = 57.6618
MEAN_ANOMALY   = 344.5873

EPHEMERIS_TYPE = 0
CLASSIFICATION_TYPE = U
NORAD_CAT_ID   = 67656
ELEMENT_SET_NO = 999
REV_AT_EPOCH   = 200
BSTAR          = -.22007207E-2
MEAN_MOTION_DOT = -.1379154E-1
MEAN_MOTION_DDOT = .62064653E-3

CCSDS_OMM_VERS = 2.0
CREATION_DATE  = 
ORIGINATOR     = 

OBJECT_NAME    = STARLINK-36706
OBJECT_ID      = 2026-022K
CENTER_NAME    = EARTH
REF_FRAME      = TEME
TIME_SYSTEM    = UTC
MEAN_ELEMENT_THEORY = SGP/SGP4

EPOCH          = 2026-02-07T06:00:02.999808
MEAN_MOTION    = 16.03923930
ECCENTRICITY   = .00010297
INCLINATION    = 97.2822
RA_OF_ASC_NODE = 70.5370
ARG_OF_PERICENTER = 59.2100
MEAN_ANOMALY   = 344.2578

EPHEMERIS_TYPE = 0
CLASSIFICATION_TYPE = U
NORAD_CAT_ID   = 67657
ELEMENT_SET_NO = 999
REV_AT_EPOCH   = 197
BSTAR          = -.21754383E-2
MEAN_MOTION_DOT = -.1375176E-1
MEAN_MOTION_DDOT = .61839825E-3

CCSDS_OMM_VERS = 2.0
CREATION_DATE  = 
ORIGINATOR     = 

OBJECT_NAME    = STARLINK-36701
OBJECT_ID      = 2026-022L
CENTER_NAME    = EARTH
REF_FRAME      = TEME
TIME_SYSTEM    = UTC
MEAN_ELEMENT_THEORY = SGP/SGP4

EPOCH          = 2026-02-07T06:00:02.999808
MEAN_MOTION    = 16.04082837
ECCENTRICITY   = .00010211
INCLINATION    = 97.2824
RA_OF_ASC_NODE = 70.5380
ARG_OF_PERICENTER = 64.2743
MEAN_ANOMALY   = 340.5040

EPHEMERIS_TYPE = 0
CLASSIFICATION_TYPE = U
NORAD_CAT_ID   = 67658
ELEMENT_SET_NO = 999
REV_AT_EPOCH   = 200
BSTAR          = -.21455377E-2
MEAN_MOTION_DOT = -.1369227E-1
MEAN_MOTION_DDOT = .61460922E-3

CCSDS_OMM_VERS = 2.0
CREATION_DATE  = 
ORIGINATOR     = 

OBJECT_NAME    = STARLINK-36642
OBJECT_ID      = 2026-022M
CENTER_NAME    = EARTH
REF_FRAME      = TEME
TIME_SYSTEM    = UTC
MEAN_ELEMENT_THEORY = SGP/SGP4

EPOCH          = 2026-02-07T06:00:02.999808
MEAN_MOTION    = 16.04193527
ECCENTRICITY   = .0001022
INCLINATION    = 97.2825
RA_OF_ASC_NODE = 70.5385
ARG_OF_PERICENTER = 60.5607
MEAN_ANOMALY   = 345.2638

EPHEMERIS_TYPE = 0
CLASSIFICATION_TYPE = U
NORAD_CAT_ID   = 67659
ELEMENT_SET_NO = 999
REV_AT_EPOCH   = 200
BSTAR          = -.21197269E-2
MEAN_MOTION_DOT = -.1361797E-1
MEAN_MOTION_DDOT = .60924621E-3

CCSDS_OMM_VERS = 2.0
CREATION_DATE  = 
ORIGINATOR     = 

OBJECT_NAME    = STARLINK-36673
OBJECT_ID      = 2026-022N
CENTER_NAME    = EARTH
REF_FRAME      = TEME
TIME_SYSTEM    = UTC
MEAN_ELEMENT_THEORY = SGP/SGP4

EPOCH          = 2026-02-07T06:00:02.999808
MEAN_MOTION    = 16.04349021
ECCENTRICITY   = .00010226
INCLINATION    = 97.2822
RA_OF_ASC_NODE = 70.5386
ARG_OF_PERICENTER = 59.6803
MEAN_ANOMALY   = 347.4409

EPHEMERIS_TYPE = 0
CLASSIFICATION_TYPE = U
NORAD_CAT_ID   = 67660
ELEMENT_SET_NO = 999
REV_AT_EPOCH   = 200
BSTAR          = -.20825452E-2
MEAN_MOTION_DOT = -.1350521E-1
MEAN_MOTION_DDOT = .6010457E-3

CCSDS_OMM_VERS = 2.0
CREATION_DATE  = 
ORIGINATOR     = 

OBJECT_NAME    = STARLINK-36674
OBJECT_ID      = 2026-022P
CENTER_NAME    = EARTH
REF_FRAME      = TEME
TIME_SYSTEM    = UTC
MEAN_ELEMENT_THEORY = SGP/SGP4

EPOCH          = 2026-02-07T06:00:02.999808
MEAN_MOTION    = 16.04463697
ECCENTRICITY   = .00010246
INCLINATION    = 97.2823
RA_OF_ASC_NODE = 70.5392
ARG_OF_PERICENTER = 62.5928
MEAN_ANOMALY   = 345.5773

EPHEMERIS_TYPE = 0
CLASSIFICATION_TYPE = U
NORAD_CAT_ID   = 67661
ELEMENT_SET_NO = 999
REV_AT_EPOCH   = 200
BSTAR          = -.20672423E-2
MEAN_MOTION_DOT = -.1349835E-1
MEAN_MOTION_DDOT = .60130456E-3

CCSDS_OMM_VERS = 2.0
CREATION_DATE  = 
ORIGINATOR     = 

OBJECT_NAME    = STARLINK-36700
OBJECT_ID      = 2026-022Q
CENTER_NAME    = EARTH
REF_FRAME      = TEME
TIME_SYSTEM    = UTC
MEAN_ELEMENT_THEORY = SGP/SGP4

EPOCH          = 2026-02-07T06:00:02.999808
MEAN_MOTION    = 16.04763124
ECCENTRICITY   = .00009718
INCLINATION    = 97.2822
RA_OF_ASC_NODE = 70.5402
ARG_OF_PERICENTER = 74.9133
MEAN_ANOMALY   = 335.7356

EPHEMERIS_TYPE = 0
CLASSIFICATION_TYPE = U
NORAD_CAT_ID   = 67662
ELEMENT_SET_NO = 999
REV_AT_EPOCH   = 200
BSTAR          = -.20222996E-2
MEAN_MOTION_DOT = -.1344477E-1
MEAN_MOTION_DDOT = .59903733E-3

CCSDS_OMM_VERS = 2.0
CREATION_DATE  = 
ORIGINATOR     = 

OBJECT_NAME    = STARLINK-36675
OBJECT_ID      = 2026-022R
CENTER_NAME    = EARTH
REF_FRAME      = TEME
TIME_SYSTEM    = UTC
MEAN_ELEMENT_THEORY = SGP/SGP4

EPOCH          = 2026-02-07T06:00:02.999808
MEAN_MOTION    = 16.04617368
ECCENTRICITY   = .0001045
INCLINATION    = 97.2821
RA_OF_ASC_NODE = 70.5397
ARG_OF_PERICENTER = 59.9674
MEAN_ANOMALY   = 349.4520

EPHEMERIS_TYPE = 0
CLASSIFICATION_TYPE = U
NORAD_CAT_ID   = 67663
ELEMENT_SET_NO = 999
REV_AT_EPOCH   = 200
BSTAR          = -.20528767E-2
MEAN_MOTION_DOT = -.1352828E-1
MEAN_MOTION_DDOT = .60489275E-3

CCSDS_OMM_VERS = 2.0
CREATION_DATE  = 
ORIGINATOR     = 

OBJECT_NAME    = STARLINK-36404
OBJECT_ID      = 2026-022S
CENTER_NAME    = EARTH
REF_FRAME      = TEME
TIME_SYSTEM    = UTC
MEAN_ELEMENT_THEORY = SGP/SGP4

EPOCH          = 2026-02-07T06:00:02.999808
MEAN_MOTION    = 16.04906395
ECCENTRICITY   = .00009935
INCLINATION    = 97.2817
RA_OF_ASC_NODE = 70.5404
ARG_OF_PERICENTER = 74.0163
MEAN_ANOMALY   = 337.8803

EPHEMERIS_TYPE = 0
CLASSIFICATION_TYPE = U
NORAD_CAT_ID   = 67664
ELEMENT_SET_NO = 999
REV_AT_EPOCH   = 197
BSTAR          = -.19851456E-2
MEAN_MOTION_DOT = -.1331357E-1
MEAN_MOTION_DDOT = .58926715E-3

CCSDS_OMM_VERS = 2.0
CREATION_DATE  = 
ORIGINATOR     = 

OBJECT_NAME    = STARLINK-36399
OBJECT_ID      = 2026-022T
CENTER_NAME    = EARTH
REF_FRAME      = TEME
TIME_SYSTEM    = UTC
MEAN_ELEMENT_THEORY = SGP/SGP4

EPOCH          = 2026-02-07T06:00:02.999808
MEAN_MOTION    = 16.05014581
ECCENTRICITY   = .00010493
INCLINATION    = 97.2818
RA_OF_ASC_NODE = 70.5410
ARG_OF_PERICENTER = 58.9639
MEAN_ANOMALY   = 353.9273

EPHEMERIS_TYPE = 0
CLASSIFICATION_TYPE = U
NORAD_CAT_ID   = 67665
ELEMENT_SET_NO = 999
REV_AT_EPOCH   = 197
BSTAR          = -.19726627E-2
MEAN_MOTION_DOT = -.1331649E-1
MEAN_MOTION_DDOT = .59028041E-3

CCSDS_OMM_VERS = 2.0
CREATION_DATE  = 
ORIGINATOR     = 

OBJECT_NAME    = STARLINK-36365
OBJECT_ID      = 2026-022U
CENTER_NAME    = EARTH
REF_FRAME      = TEME
TIME_SYSTEM    = UTC
MEAN_ELEMENT_THEORY = SGP/SGP4

EPOCH          = 2026-02-07T06:00:02.999808
MEAN_MOTION    = 16.05180140
ECCENTRICITY   = .00010815
INCLINATION    = 97.2819
RA_OF_ASC_NODE = 70.5418
ARG_OF_PERICENTER = 60.4555
MEAN_ANOMALY   = 353.7596

EPHEMERIS_TYPE = 0
CLASSIFICATION_TYPE = U
NORAD_CAT_ID   = 67666
ELEMENT_SET_NO = 999
REV_AT_EPOCH   = 200
BSTAR          = -.19341806E-2
MEAN_MOTION_DOT = -.1318943E-1
MEAN_MOTION_DDOT = .58105084E-3

CCSDS_OMM_VERS = 2.0
CREATION_DATE  = 
ORIGINATOR     = 

OBJECT_NAME    = STARLINK-36622
OBJECT_ID      = 2026-022V
CENTER_NAME    = EARTH
REF_FRAME      = TEME
TIME_SYSTEM    = UTC
MEAN_ELEMENT_THEORY = SGP/SGP4

EPOCH          = 2026-02-07T06:00:02.999808
MEAN_MOTION    = 16.05351978
ECCENTRICITY   = .00009358
INCLINATION    = 97.2818
RA_OF_ASC_NODE = 70.5422
ARG_OF_PERICENTER = 73.3115
MEAN_ANOMALY   = 342.2759

EPHEMERIS_TYPE = 0
CLASSIFICATION_TYPE = U
NORAD_CAT_ID   = 67667
ELEMENT_SET_NO = 999
REV_AT_EPOCH   = 200
BSTAR          = -.18899671E-2
MEAN_MOTION_DOT = -.1302429E-1
MEAN_MOTION_DDOT = .56882874E-3

