STARLINK-36688          
1 67656U 26022J   26038.25003472 -.01379154  62065-3 -22007-2 0  9991
2 67656  97.2825  70.5367 0001022  57.6618 344.5873 16.03778575  2006
STARLINK-36706          
1 67657U 26022K   26038.25003472 -.01375176  61840-3 -21754-2 0  9990
2 67657  97.2822  70.5370 0001029  59.2100 344.2578 16.03923930  1970
STARLINK-36701          
1 67658U 26022L   26038.25003472 -.01369227  61461-3 -21455-2 0  9998
2 67658  97.2824  70.5380 0001021  64.2743 340.5040 16.04082837  2006
STARLINK-36642          
1 67659U 26022M   26038.25003472 -.01361797  60925-3 -21197-2 0  9990
2 67659  97.2825  70.5385 0001022  60.5607 345.2638 16.04193527  2006
STARLINK-36673          
1 67660U 26022N   26038.25003472 -.01350521  60105-3 -20825-2 0  9992
2 67660  97.2822  70.5386 0001022  59.6803 347.4409 16.04349021  2005
STARLINK-36674          
1 67661U 26022P   26038.25003472 -.01349835  60130-3 -20672-2 0  9997
2 67661  97.2823  70.5392 0001024  62.5928 345.5773 16.04463697  2006
STARLINK-36700          
1 67662U 26022Q   26038.25003472 -.01344477  59904-3 -20223-2 0  9994
2 67662  97.2822  70.5402 0000971  74.9133 335.7356 16.04763124  2009
STARLINK-36675          
1 67663U 26022R   26038.25003472 -.01352828  60489-3 -20529-2 0  9993
2 67663  97.2821  70.5397 0001045  59.9674 349.4520 16.04617368  2001
STARLINK-36404          
1 67664U 26022S   26038.25003472 -.01331357  58927-3 -19851-2 0  9998
2 67664  97.2817  70.5404 0000993  74.0163 337.8803 16.04906395  1979
STARLINK-36399          
1 67665U 26022T   26038.25003472 -.01331649  59028-3 -19727-2 0  9998
2 67665  97.2818  70.5410 0001049  58.9639 353.9273 16.05014581  1978
STARLINK-36365          
1 67666U 26022U   26038.25003472 -.01318943  58105-3 -19342-2 0  9999
2 67666  97.2819  70.5418 0001081  60.4555 353.7596 16.05180140  2005
STARLINK-36622          
1 67667U 26022V   26038.25003472 -.01302429  56883-3 -18900-2 0  9992
2 67667  97.2818  70.5422 0000935  73.3115 342.2759 16.05351978  2005
